*******************************************************************************
Ephemeris / WWW_USER Mon Mar 24 07:37:58 2025 Pasadena, USA      / Horizons    
*******************************************************************************
Target body name: (2018 RY7)                      {source: JPL#20}
Center body name: Earth (399)                     {source: DE441}
Center-site name: Mauna Kea
*******************************************************************************
Start time      : A.D. 2018-Nov-21 03:51:00.0000 UT      
Stop  time      : A.D. 2018-Nov-21 16:24:00.0000 UT      
Step-size       : 1 minutes
*******************************************************************************
Target pole/equ : undefined
Target radii    : undefined                                                    
Center geodetic : 204.5278, 19.8260847, 4.21024   {E-lon(deg),Lat(deg),Alt(km)}
Center cylindric: 204.5278, 6006.35451, 2151.0229 {E-lon(deg),Dxy(km),Dz(km)}
Center pole/equ : ITRF93                          {East-longitude positive}
Center radii    : 6378.137, 6378.137, 6356.752 km {Equator_a, b, pole_c}       
Target primary  : Sun
Vis. interferer : MOON (R_eq= 1737.400) km        {source: DE441}
Rel. light bend : Sun                             {source: DE441}
Rel. lght bnd GM: 1.3271E+11 km^3/s^2                                          
Small-body perts: Yes                             {source: SB441-N16}
Atmos refraction: NO (AIRLESS)
RA format       : HMS
Time format     : CAL 
Calendar mode   : Mixed Julian/Gregorian
RTS-only print  : NO       
EOP file        : eop.250321.p250617                                           
EOP coverage    : DATA-BASED 1962-JAN-20 TO 2025-MAR-21. PREDICTS-> 2025-JUN-16
Units conversion: 1 au= 149597870.700 km, c= 299792.458 km/s, 1 day= 86400.0 s 
Table cut-offs 1: Elevation (-90.0deg=NO ),Airmass (>38.000=NO), Daylight (YES)
Table cut-offs 2: Solar elongation (  0.0,180.0=NO ),Local Hour Angle( 0.0=NO )
Table cut-offs 3: RA/DEC angular rate (     0.0=NO )                           
*******************************************************************************
Initial IAU76/J2000 heliocentric ecliptic osculating elements (au, days, deg.):
  EPOCH=  2458422.5 ! 2018-Oct-31.00 (TDB)         Residual RMS= .22459        
   EC= .1470549687381346   QR= .8667733479166969   TP= 2458516.8896767548      
   OM= 2.838668085760325   W=  136.9006026425241   IN= 13.35135890147074       
  Equivalent ICRF heliocentric cartesian coordinates (au, au/d):
   X= 8.791791513870114E-01  Y= 4.508422091141234E-01  Z= 3.244113040133835E-01
  VX=-1.085418916943652E-02 VY= 1.006005810562689E-02 VZ= 7.673980932675997E-03
Asteroid physical parameters (km, seconds, rotational period in hours):        
   GM= n.a.                RAD= n.a.               ROTPER= n.a.                
   H= 24.4                 G= .150                 B-V= n.a.                   
                           ALBEDO= n.a.            STYP= n.a.                  
*******************************************************************************
 Date__(UT)__HR:MN     R.A._________(ICRF)_________DEC
******************************************************
$$SOE
 2018-Nov-21 16:09 N   20 02 40.971873 +38 00 58.55649
 2018-Nov-21 16:10 N   20 02 40.923705 +38 00 59.09587
 2018-Nov-21 16:11 C   20 02 40.875508 +38 00 59.63565
 2018-Nov-21 16:12 C   20 02 40.827282 +38 01 00.17583
 2018-Nov-21 16:13 C   20 02 40.779028 +38 01 00.71643
 2018-Nov-21 16:14 C   20 02 40.730744 +38 01 01.25743
 2018-Nov-21 16:15 C   20 02 40.682430 +38 01 01.79884
 2018-Nov-21 16:16 C   20 02 40.634087 +38 01 02.34064
 2018-Nov-21 16:17 C   20 02 40.585714 +38 01 02.88286
 2018-Nov-21 16:18 C   20 02 40.537310 +38 01 03.42547
 2018-Nov-21 16:19 C   20 02 40.488876 +38 01 03.96848
 2018-Nov-21 16:20 C   20 02 40.440411 +38 01 04.51190
 2018-Nov-21 16:21 C   20 02 40.391915 +38 01 05.05571
 2018-Nov-21 16:22 C   20 02 40.343388 +38 01 05.59992
 2018-Nov-21 16:23 C   20 02 40.294829 +38 01 06.14453
 2018-Nov-21 16:24 C   20 02 40.246239 +38 01 06.68953
